{"type": "FeatureCollection", "features": [{"type": "Feature", "properties": {"name": "hex_003_004", "gust_2023": 65.8, "category_2023": "Cat 1", "triggered_2023": false, "payout_2023": 0.0}, "geometry": {"type": "Polygon", "coordinates": [[[166.962390389983, -45.88533598294537], [166.7839912636209, -45.65037331438374], [166.42719301089673, -45.65037331438374], [166.24879388453462, -45.88533598294537], [166.42719301089673, -46.120298651507], [166.7839912636209, -46.120298651507], [166.962390389983, -45.88533598294537]]]}}, {"type": "Feature", "properties": {"name": "hex_004_004", "gust_2023": 53.7, "category_2023": "below Cat 1", "triggered_2023": false, "payout_2023": 0.0}, "geometry": {"type": "Polygon", "coordinates": [[[167.49758776906927, -46.120298651507], [167.31918864270716, -45.88533598294537], [166.962390389983, -45.88533598294537], [166.7839912636209, -46.120298651507], [166.962390389983, -46.35526132006863], [167.31918864270716, -46.35526132006863], [167.49758776906927, -46.120298651507]]]}}, {"type": "Feature", "properties": {"name": "hex_004_005", "gust_2023": 57.9, "category_2023": "below Cat 1", "triggered_2023": false, "payout_2023": 0.0}, "geometry": {"type": "Polygon", "coordinates": [[[167.49758776906927, -45.65037331438375], [167.31918864270716, -45.41541064582212], [166.962390389983, -45.41541064582212], [166.7839912636209, -45.65037331438375], [166.962390389983, -45.88533598294538], [167.31918864270716, -45.88533598294538], [167.49758776906927, -45.65037331438375]]]}}, {"type": "Feature", "properties": {"name": "hex_004_006", "gust_2023": 63.5, "category_2023": "Cat 1", "triggered_2023": false, "payout_2023": 0.0}, "geometry": {"type": "Polygon", "coordinates": [[[167.49758776906927, -45.1804479772605], [167.31918864270716, -44.94548530869887], [166.962390389983, -44.94548530869887], [166.7839912636209, -45.1804479772605], [166.962390389983, -45.41541064582213], [167.31918864270716, -45.41541064582213], [167.49758776906927, -45.1804479772605]]]}}, {"type": "Feature", "properties": {"name": "hex_005_004", "gust_2023": 47.0, "category_2023": "below Cat 1", "triggered_2023": false, "payout_2023": 0.0}, "geometry": {"type": "Polygon", "coordinates": [[[168.03278514815554, -45.88533598294537], [167.85438602179343, -45.65037331438374], [167.49758776906927, -45.65037331438374], [167.31918864270716, -45.88533598294537], [167.49758776906927, -46.120298651507], [167.85438602179343, -46.120298651507], [168.03278514815554, -45.88533598294537]]]}}, {"type": "Feature", "properties": {"name": "hex_005_005", "gust_2023": 58.9, "category_2023": "below Cat 1", "triggered_2023": false, "payout_2023": 0.0}, "geometry": {"type": "Polygon", "coordinates": [[[168.03278514815554, -45.41541064582212], [167.85438602179343, -45.18044797726049], [167.49758776906927, -45.18044797726049], [167.31918864270716, -45.41541064582212], [167.49758776906927, -45.65037331438375], [167.85438602179343, -45.65037331438375], [168.03278514815554, -45.41541064582212]]]}}, {"type": "Feature", "properties": {"name": "hex_005_006", "gust_2023": 59.7, "category_2023": "below Cat 1", "triggered_2023": false, "payout_2023": 0.0}, "geometry": {"type": "Polygon", "coordinates": [[[168.03278514815554, -44.94548530869886], [167.85438602179343, -44.710522640137235], [167.49758776906927, -44.710522640137235], [167.31918864270716, -44.94548530869886], [167.49758776906927, -45.18044797726049], [167.85438602179343, -45.18044797726049], [168.03278514815554, -44.94548530869886]]]}}, {"type": "Feature", "properties": {"name": "hex_006_004", "gust_2023": 46.2, "category_2023": "below Cat 1", "triggered_2023": false, "payout_2023": 0.0}, "geometry": {"type": "Polygon", "coordinates": [[[168.5679825272418, -46.120298651507], [168.3895834008797, -45.88533598294537], [168.03278514815554, -45.88533598294537], [167.85438602179343, -46.120298651507], [168.03278514815554, -46.35526132006863], [168.3895834008797, -46.35526132006863], [168.5679825272418, -46.120298651507]]]}}, {"type": "Feature", "properties": {"name": "hex_006_005", "gust_2023": 45.9, "category_2023": "below Cat 1", "triggered_2023": false, "payout_2023": 0.0}, "geometry": {"type": "Polygon", "coordinates": [[[168.5679825272418, -45.65037331438375], [168.3895834008797, -45.41541064582212], [168.03278514815554, -45.41541064582212], [167.85438602179343, -45.65037331438375], [168.03278514815554, -45.88533598294538], [168.3895834008797, -45.88533598294538], [168.5679825272418, -45.65037331438375]]]}}, {"type": "Feature", "properties": {"name": "hex_006_006", "gust_2023": 51.7, "category_2023": "below Cat 1", "triggered_2023": false, "payout_2023": 0.0}, "geometry": {"type": "Polygon", "coordinates": [[[168.5679825272418, -45.1804479772605], [168.3895834008797, -44.94548530869887], [168.03278514815554, -44.94548530869887], [167.85438602179343, -45.1804479772605], [168.03278514815554, -45.41541064582213], [168.3895834008797, -45.41541064582213], [168.5679825272418, -45.1804479772605]]]}}, {"type": "Feature", "properties": {"name": "hex_006_007", "gust_2023": 53.3, "category_2023": "below Cat 1", "triggered_2023": false, "payout_2023": 0.0}, "geometry": {"type": "Polygon", "coordinates": [[[168.5679825272418, -44.71052264013724], [168.3895834008797, -44.47555997157561], [168.03278514815554, -44.47555997157561], [167.85438602179343, -44.71052264013724], [168.03278514815554, -44.94548530869887], [168.3895834008797, -44.94548530869887], [168.5679825272418, -44.71052264013724]]]}}, {"type": "Feature", "properties": {"name": "hex_006_008", "gust_2023": 47.1, "category_2023": "below Cat 1", "triggered_2023": false, "payout_2023": 0.0}, "geometry": {"type": "Polygon", "coordinates": [[[168.5679825272418, -44.24059730301399], [168.3895834008797, -44.00563463445236], [168.03278514815554, -44.00563463445236], [167.85438602179343, -44.24059730301399], [168.03278514815554, -44.47555997157562], [168.3895834008797, -44.47555997157562], [168.5679825272418, -44.24059730301399]]]}}, {"type": "Feature", "properties": {"name": "hex_007_003", "gust_2023": 52.5, "category_2023": "below Cat 1", "triggered_2023": false, "payout_2023": 0.0}, "geometry": {"type": "Polygon", "coordinates": [[[169.10317990632808, -46.35526132006862], [168.92478077996597, -46.12029865150699], [168.5679825272418, -46.12029865150699], [168.3895834008797, -46.35526132006862], [168.5679825272418, -46.59022398863025], [168.92478077996597, -46.59022398863025], [169.10317990632808, -46.35526132006862]]]}}, {"type": "Feature", "properties": {"name": "hex_007_004", "gust_2023": 42.3, "category_2023": "below Cat 1", "triggered_2023": false, "payout_2023": 0.0}, "geometry": {"type": "Polygon", "coordinates": [[[169.10317990632808, -45.88533598294537], [168.92478077996597, -45.65037331438374], [168.5679825272418, -45.65037331438374], [168.3895834008797, -45.88533598294537], [168.5679825272418, -46.120298651507], [168.92478077996597, -46.120298651507], [169.10317990632808, -45.88533598294537]]]}}, {"type": "Feature", "properties": {"name": "hex_007_005", "gust_2023": 48.4, "category_2023": "below Cat 1", "triggered_2023": false, "payout_2023": 0.0}, "geometry": {"type": "Polygon", "coordinates": [[[169.10317990632808, -45.41541064582212], [168.92478077996597, -45.18044797726049], [168.5679825272418, -45.18044797726049], [168.3895834008797, -45.41541064582212], [168.5679825272418, -45.65037331438375], [168.92478077996597, -45.65037331438375], [169.10317990632808, -45.41541064582212]]]}}, {"type": "Feature", "properties": {"name": "hex_007_006", "gust_2023": 51.2, "category_2023": "below Cat 1", "triggered_2023": false, "payout_2023": 0.0}, "geometry": {"type": "Polygon", "coordinates": [[[169.10317990632808, -44.94548530869886], [168.92478077996597, -44.710522640137235], [168.5679825272418, -44.710522640137235], [168.3895834008797, -44.94548530869886], [168.5679825272418, -45.18044797726049], [168.92478077996597, -45.18044797726049], [169.10317990632808, -44.94548530869886]]]}}, {"type": "Feature", "properties": {"name": "hex_007_007", "gust_2023": 65.3, "category_2023": "Cat 1", "triggered_2023": false, "payout_2023": 0.0}, "geometry": {"type": "Polygon", "coordinates": [[[169.10317990632808, -44.47555997157561], [168.92478077996597, -44.240597303013985], [168.5679825272418, -44.240597303013985], [168.3895834008797, -44.47555997157561], [168.5679825272418, -44.71052264013724], [168.92478077996597, -44.71052264013724], [169.10317990632808, -44.47555997157561]]]}}, {"type": "Feature", "properties": {"name": "hex_007_008", "gust_2023": 63.6, "category_2023": "Cat 1", "triggered_2023": false, "payout_2023": 0.0}, "geometry": {"type": "Polygon", "coordinates": [[[169.10317990632808, -44.00563463445236], [168.92478077996597, -43.770671965890735], [168.5679825272418, -43.770671965890735], [168.3895834008797, -44.00563463445236], [168.5679825272418, -44.24059730301399], [168.92478077996597, -44.24059730301399], [169.10317990632808, -44.00563463445236]]]}}, {"type": "Feature", "properties": {"name": "hex_008_003", "gust_2023": 65.1, "category_2023": "Cat 1", "triggered_2023": false, "payout_2023": 0.0}, "geometry": {"type": "Polygon", "coordinates": [[[169.63837728541435, -46.59022398863025], [169.45997815905224, -46.35526132006862], [169.10317990632808, -46.35526132006862], [168.92478077996597, -46.59022398863025], [169.10317990632808, -46.82518665719188], [169.45997815905224, -46.82518665719188], [169.63837728541435, -46.59022398863025]]]}}, {"type": "Feature", "properties": {"name": "hex_008_004", "gust_2023": 52.1, "category_2023": "below Cat 1", "triggered_2023": false, "payout_2023": 0.0}, "geometry": {"type": "Polygon", "coordinates": [[[169.63837728541435, -46.120298651507], [169.45997815905224, -45.88533598294537], [169.10317990632808, -45.88533598294537], [168.92478077996597, -46.120298651507], [169.10317990632808, -46.35526132006863], [169.45997815905224, -46.35526132006863], [169.63837728541435, -46.120298651507]]]}}, {"type": "Feature", "properties": {"name": "hex_008_005", "gust_2023": 44.5, "category_2023": "below Cat 1", "triggered_2023": false, "payout_2023": 0.0}, "geometry": {"type": "Polygon", "coordinates": [[[169.63837728541435, -45.65037331438375], [169.45997815905224, -45.41541064582212], [169.10317990632808, -45.41541064582212], [168.92478077996597, -45.65037331438375], [169.10317990632808, -45.88533598294538], [169.45997815905224, -45.88533598294538], [169.63837728541435, -45.65037331438375]]]}}, {"type": "Feature", "properties": {"name": "hex_008_006", "gust_2023": 49.6, "category_2023": "below Cat 1", "triggered_2023": false, "payout_2023": 0.0}, "geometry": {"type": "Polygon", "coordinates": [[[169.63837728541435, -45.1804479772605], [169.45997815905224, -44.94548530869887], [169.10317990632808, -44.94548530869887], [168.92478077996597, -45.1804479772605], [169.10317990632808, -45.41541064582213], [169.45997815905224, -45.41541064582213], [169.63837728541435, -45.1804479772605]]]}}, {"type": "Feature", "properties": {"name": "hex_008_007", "gust_2023": 53.1, "category_2023": "below Cat 1", "triggered_2023": false, "payout_2023": 0.0}, "geometry": {"type": "Polygon", "coordinates": [[[169.63837728541435, -44.71052264013724], [169.45997815905224, -44.47555997157561], [169.10317990632808, -44.47555997157561], [168.92478077996597, -44.71052264013724], [169.10317990632808, -44.94548530869887], [169.45997815905224, -44.94548530869887], [169.63837728541435, -44.71052264013724]]]}}, {"type": "Feature", "properties": {"name": "hex_008_008", "gust_2023": 72.9, "category_2023": "Cat 1", "triggered_2023": false, "payout_2023": 0.0}, "geometry": {"type": "Polygon", "coordinates": [[[169.63837728541435, -44.24059730301399], [169.45997815905224, -44.00563463445236], [169.10317990632808, -44.00563463445236], [168.92478077996597, -44.24059730301399], [169.10317990632808, -44.47555997157562], [169.45997815905224, -44.47555997157562], [169.63837728541435, -44.24059730301399]]]}}, {"type": "Feature", "properties": {"name": "hex_008_009", "gust_2023": 72.9, "category_2023": "Cat 1", "triggered_2023": false, "payout_2023": 0.0}, "geometry": {"type": "Polygon", "coordinates": [[[169.63837728541435, -43.77067196589074], [169.45997815905224, -43.53570929732911], [169.10317990632808, -43.53570929732911], [168.92478077996597, -43.77067196589074], [169.10317990632808, -44.00563463445237], [169.45997815905224, -44.00563463445237], [169.63837728541435, -43.77067196589074]]]}}, {"type": "Feature", "properties": {"name": "hex_009_004", "gust_2023": 60.1, "category_2023": "below Cat 1", "triggered_2023": false, "payout_2023": 0.0}, "geometry": {"type": "Polygon", "coordinates": [[[170.17357466450062, -45.88533598294537], [169.9951755381385, -45.65037331438374], [169.63837728541435, -45.65037331438374], [169.45997815905224, -45.88533598294537], [169.63837728541435, -46.120298651507], [169.9951755381385, -46.120298651507], [170.17357466450062, -45.88533598294537]]]}}, {"type": "Feature", "properties": {"name": "hex_009_005", "gust_2023": 51.9, "category_2023": "below Cat 1", "triggered_2023": false, "payout_2023": 0.0}, "geometry": {"type": "Polygon", "coordinates": [[[170.17357466450062, -45.41541064582212], [169.9951755381385, -45.18044797726049], [169.63837728541435, -45.18044797726049], [169.45997815905224, -45.41541064582212], [169.63837728541435, -45.65037331438375], [169.9951755381385, -45.65037331438375], [170.17357466450062, -45.41541064582212]]]}}, {"type": "Feature", "properties": {"name": "hex_009_006", "gust_2023": 48.5, "category_2023": "below Cat 1", "triggered_2023": false, "payout_2023": 0.0}, "geometry": {"type": "Polygon", "coordinates": [[[170.17357466450062, -44.94548530869886], [169.9951755381385, -44.710522640137235], [169.63837728541435, -44.710522640137235], [169.45997815905224, -44.94548530869886], [169.63837728541435, -45.18044797726049], [169.9951755381385, -45.18044797726049], [170.17357466450062, -44.94548530869886]]]}}, {"type": "Feature", "properties": {"name": "hex_009_007", "gust_2023": 49.4, "category_2023": "below Cat 1", "triggered_2023": false, "payout_2023": 0.0}, "geometry": {"type": "Polygon", "coordinates": [[[170.17357466450062, -44.47555997157561], [169.9951755381385, -44.240597303013985], [169.63837728541435, -44.240597303013985], [169.45997815905224, -44.47555997157561], [169.63837728541435, -44.71052264013724], [169.9951755381385, -44.71052264013724], [170.17357466450062, -44.47555997157561]]]}}, {"type": "Feature", "properties": {"name": "hex_009_008", "gust_2023": 72.9, "category_2023": "Cat 1", "triggered_2023": false, "payout_2023": 0.0}, "geometry": {"type": "Polygon", "coordinates": [[[170.17357466450062, -44.00563463445236], [169.9951755381385, -43.770671965890735], [169.63837728541435, -43.770671965890735], [169.45997815905224, -44.00563463445236], [169.63837728541435, -44.24059730301399], [169.9951755381385, -44.24059730301399], [170.17357466450062, -44.00563463445236]]]}}, {"type": "Feature", "properties": {"name": "hex_009_009", "gust_2023": 66.5, "category_2023": "Cat 1", "triggered_2023": false, "payout_2023": 0.0}, "geometry": {"type": "Polygon", "coordinates": [[[170.17357466450062, -43.53570929732911], [169.9951755381385, -43.300746628767484], [169.63837728541435, -43.300746628767484], [169.45997815905224, -43.53570929732911], [169.63837728541435, -43.77067196589074], [169.9951755381385, -43.77067196589074], [170.17357466450062, -43.53570929732911]]]}}, {"type": "Feature", "properties": {"name": "hex_010_005", "gust_2023": 65.5, "category_2023": "Cat 1", "triggered_2023": false, "payout_2023": 0.0}, "geometry": {"type": "Polygon", "coordinates": [[[170.7087720435869, -45.65037331438375], [170.53037291722478, -45.41541064582212], [170.17357466450062, -45.41541064582212], [169.9951755381385, -45.65037331438375], [170.17357466450062, -45.88533598294538], [170.53037291722478, -45.88533598294538], [170.7087720435869, -45.65037331438375]]]}}, {"type": "Feature", "properties": {"name": "hex_010_006", "gust_2023": 56.5, "category_2023": "below Cat 1", "triggered_2023": false, "payout_2023": 0.0}, "geometry": {"type": "Polygon", "coordinates": [[[170.7087720435869, -45.1804479772605], [170.53037291722478, -44.94548530869887], [170.17357466450062, -44.94548530869887], [169.9951755381385, -45.1804479772605], [170.17357466450062, -45.41541064582213], [170.53037291722478, -45.41541064582213], [170.7087720435869, -45.1804479772605]]]}}, {"type": "Feature", "properties": {"name": "hex_010_007", "gust_2023": 52.6, "category_2023": "below Cat 1", "triggered_2023": false, "payout_2023": 0.0}, "geometry": {"type": "Polygon", "coordinates": [[[170.7087720435869, -44.71052264013724], [170.53037291722478, -44.47555997157561], [170.17357466450062, -44.47555997157561], [169.9951755381385, -44.71052264013724], [170.17357466450062, -44.94548530869887], [170.53037291722478, -44.94548530869887], [170.7087720435869, -44.71052264013724]]]}}, {"type": "Feature", "properties": {"name": "hex_010_008", "gust_2023": 50.1, "category_2023": "below Cat 1", "triggered_2023": false, "payout_2023": 0.0}, "geometry": {"type": "Polygon", "coordinates": [[[170.7087720435869, -44.24059730301399], [170.53037291722478, -44.00563463445236], [170.17357466450062, -44.00563463445236], [169.9951755381385, -44.24059730301399], [170.17357466450062, -44.47555997157562], [170.53037291722478, -44.47555997157562], [170.7087720435869, -44.24059730301399]]]}}, {"type": "Feature", "properties": {"name": "hex_010_009", "gust_2023": 66.5, "category_2023": "Cat 1", "triggered_2023": false, "payout_2023": 0.0}, "geometry": {"type": "Polygon", "coordinates": [[[170.7087720435869, -43.77067196589074], [170.53037291722478, -43.53570929732911], [170.17357466450062, -43.53570929732911], [169.9951755381385, -43.77067196589074], [170.17357466450062, -44.00563463445237], [170.53037291722478, -44.00563463445237], [170.7087720435869, -43.77067196589074]]]}}, {"type": "Feature", "properties": {"name": "hex_010_010", "gust_2023": 65.8, "category_2023": "Cat 1", "triggered_2023": false, "payout_2023": 0.0}, "geometry": {"type": "Polygon", "coordinates": [[[170.7087720435869, -43.30074662876749], [170.53037291722478, -43.06578396020586], [170.17357466450062, -43.06578396020586], [169.9951755381385, -43.30074662876749], [170.17357466450062, -43.53570929732912], [170.53037291722478, -43.53570929732912], [170.7087720435869, -43.30074662876749]]]}}, {"type": "Feature", "properties": {"name": "hex_011_006", "gust_2023": 53.2, "category_2023": "below Cat 1", "triggered_2023": false, "payout_2023": 0.0}, "geometry": {"type": "Polygon", "coordinates": [[[171.24396942267316, -44.94548530869886], [171.06557029631105, -44.710522640137235], [170.7087720435869, -44.710522640137235], [170.53037291722478, -44.94548530869886], [170.7087720435869, -45.18044797726049], [171.06557029631105, -45.18044797726049], [171.24396942267316, -44.94548530869886]]]}}, {"type": "Feature", "properties": {"name": "hex_011_007", "gust_2023": 51.1, "category_2023": "below Cat 1", "triggered_2023": false, "payout_2023": 0.0}, "geometry": {"type": "Polygon", "coordinates": [[[171.24396942267316, -44.47555997157561], [171.06557029631105, -44.240597303013985], [170.7087720435869, -44.240597303013985], [170.53037291722478, -44.47555997157561], [170.7087720435869, -44.71052264013724], [171.06557029631105, -44.71052264013724], [171.24396942267316, -44.47555997157561]]]}}, {"type": "Feature", "properties": {"name": "hex_011_008", "gust_2023": 46.3, "category_2023": "below Cat 1", "triggered_2023": false, "payout_2023": 0.0}, "geometry": {"type": "Polygon", "coordinates": [[[171.24396942267316, -44.00563463445236], [171.06557029631105, -43.770671965890735], [170.7087720435869, -43.770671965890735], [170.53037291722478, -44.00563463445236], [170.7087720435869, -44.24059730301399], [171.06557029631105, -44.24059730301399], [171.24396942267316, -44.00563463445236]]]}}, {"type": "Feature", "properties": {"name": "hex_011_009", "gust_2023": 71.6, "category_2023": "Cat 1", "triggered_2023": false, "payout_2023": 0.0}, "geometry": {"type": "Polygon", "coordinates": [[[171.24396942267316, -43.53570929732911], [171.06557029631105, -43.300746628767484], [170.7087720435869, -43.300746628767484], [170.53037291722478, -43.53570929732911], [170.7087720435869, -43.77067196589074], [171.06557029631105, -43.77067196589074], [171.24396942267316, -43.53570929732911]]]}}, {"type": "Feature", "properties": {"name": "hex_011_010", "gust_2023": 71.6, "category_2023": "Cat 1", "triggered_2023": false, "payout_2023": 0.0}, "geometry": {"type": "Polygon", "coordinates": [[[171.24396942267316, -43.06578396020586], [171.06557029631105, -42.830821291644234], [170.7087720435869, -42.830821291644234], [170.53037291722478, -43.06578396020586], [170.7087720435869, -43.30074662876749], [171.06557029631105, -43.30074662876749], [171.24396942267316, -43.06578396020586]]]}}, {"type": "Feature", "properties": {"name": "hex_012_009", "gust_2023": 52.1, "category_2023": "below Cat 1", "triggered_2023": false, "payout_2023": 0.0}, "geometry": {"type": "Polygon", "coordinates": [[[171.77916680175943, -43.77067196589074], [171.60076767539732, -43.53570929732911], [171.24396942267316, -43.53570929732911], [171.06557029631105, -43.77067196589074], [171.24396942267316, -44.00563463445237], [171.60076767539732, -44.00563463445237], [171.77916680175943, -43.77067196589074]]]}}, {"type": "Feature", "properties": {"name": "hex_012_010", "gust_2023": 68.1, "category_2023": "Cat 1", "triggered_2023": false, "payout_2023": 0.0}, "geometry": {"type": "Polygon", "coordinates": [[[171.77916680175943, -43.30074662876749], [171.60076767539732, -43.06578396020586], [171.24396942267316, -43.06578396020586], [171.06557029631105, -43.30074662876749], [171.24396942267316, -43.53570929732912], [171.60076767539732, -43.53570929732912], [171.77916680175943, -43.30074662876749]]]}}, {"type": "Feature", "properties": {"name": "hex_012_011", "gust_2023": 70.8, "category_2023": "Cat 1", "triggered_2023": false, "payout_2023": 0.0}, "geometry": {"type": "Polygon", "coordinates": [[[171.77916680175943, -42.83082129164424], [171.60076767539732, -42.59585862308261], [171.24396942267316, -42.59585862308261], [171.06557029631105, -42.83082129164424], [171.24396942267316, -43.06578396020587], [171.60076767539732, -43.06578396020587], [171.77916680175943, -42.83082129164424]]]}}, {"type": "Feature", "properties": {"name": "hex_012_012", "gust_2023": 71.0, "category_2023": "Cat 1", "triggered_2023": false, "payout_2023": 0.0}, "geometry": {"type": "Polygon", "coordinates": [[[171.77916680175943, -42.36089595452099], [171.60076767539732, -42.12593328595936], [171.24396942267316, -42.12593328595936], [171.06557029631105, -42.36089595452099], [171.24396942267316, -42.59585862308262], [171.60076767539732, -42.59585862308262], [171.77916680175943, -42.36089595452099]]]}}, {"type": "Feature", "properties": {"name": "hex_013_009", "gust_2023": 58.2, "category_2023": "below Cat 1", "triggered_2023": false, "payout_2023": 0.0}, "geometry": {"type": "Polygon", "coordinates": [[[172.3143641808457, -43.53570929732911], [172.1359650544836, -43.300746628767484], [171.77916680175943, -43.300746628767484], [171.60076767539732, -43.53570929732911], [171.77916680175943, -43.77067196589074], [172.1359650544836, -43.77067196589074], [172.3143641808457, -43.53570929732911]]]}}, {"type": "Feature", "properties": {"name": "hex_013_010", "gust_2023": 68.5, "category_2023": "Cat 1", "triggered_2023": false, "payout_2023": 0.0}, "geometry": {"type": "Polygon", "coordinates": [[[172.3143641808457, -43.06578396020586], [172.1359650544836, -42.830821291644234], [171.77916680175943, -42.830821291644234], [171.60076767539732, -43.06578396020586], [171.77916680175943, -43.30074662876749], [172.1359650544836, -43.30074662876749], [172.3143641808457, -43.06578396020586]]]}}, {"type": "Feature", "properties": {"name": "hex_013_011", "gust_2023": 71.4, "category_2023": "Cat 1", "triggered_2023": false, "payout_2023": 0.0}, "geometry": {"type": "Polygon", "coordinates": [[[172.3143641808457, -42.59585862308261], [172.1359650544836, -42.360895954520984], [171.77916680175943, -42.360895954520984], [171.60076767539732, -42.59585862308261], [171.77916680175943, -42.83082129164424], [172.1359650544836, -42.83082129164424], [172.3143641808457, -42.59585862308261]]]}}, {"type": "Feature", "properties": {"name": "hex_013_012", "gust_2023": 67.5, "category_2023": "Cat 1", "triggered_2023": false, "payout_2023": 0.0}, "geometry": {"type": "Polygon", "coordinates": [[[172.3143641808457, -42.12593328595936], [172.1359650544836, -41.890970617397734], [171.77916680175943, -41.890970617397734], [171.60076767539732, -42.12593328595936], [171.77916680175943, -42.36089595452099], [172.1359650544836, -42.36089595452099], [172.3143641808457, -42.12593328595936]]]}}, {"type": "Feature", "properties": {"name": "hex_013_013", "gust_2023": 54.8, "category_2023": "below Cat 1", "triggered_2023": false, "payout_2023": 0.0}, "geometry": {"type": "Polygon", "coordinates": [[[172.3143641808457, -41.65600794883611], [172.1359650544836, -41.421045280274484], [171.77916680175943, -41.421045280274484], [171.60076767539732, -41.65600794883611], [171.77916680175943, -41.89097061739774], [172.1359650544836, -41.89097061739774], [172.3143641808457, -41.65600794883611]]]}}, {"type": "Feature", "properties": {"name": "hex_014_009", "gust_2023": 66.8, "category_2023": "Cat 1", "triggered_2023": false, "payout_2023": 0.0}, "geometry": {"type": "Polygon", "coordinates": [[[172.84956155993197, -43.77067196589074], [172.67116243356986, -43.53570929732911], [172.3143641808457, -43.53570929732911], [172.1359650544836, -43.77067196589074], [172.3143641808457, -44.00563463445237], [172.67116243356986, -44.00563463445237], [172.84956155993197, -43.77067196589074]]]}}, {"type": "Feature", "properties": {"name": "hex_014_010", "gust_2023": 63.7, "category_2023": "Cat 1", "triggered_2023": false, "payout_2023": 0.0}, "geometry": {"type": "Polygon", "coordinates": [[[172.84956155993197, -43.30074662876749], [172.67116243356986, -43.06578396020586], [172.3143641808457, -43.06578396020586], [172.1359650544836, -43.30074662876749], [172.3143641808457, -43.53570929732912], [172.67116243356986, -43.53570929732912], [172.84956155993197, -43.30074662876749]]]}}, {"type": "Feature", "properties": {"name": "hex_014_011", "gust_2023": 67.2, "category_2023": "Cat 1", "triggered_2023": false, "payout_2023": 0.0}, "geometry": {"type": "Polygon", "coordinates": [[[172.84956155993197, -42.83082129164424], [172.67116243356986, -42.59585862308261], [172.3143641808457, -42.59585862308261], [172.1359650544836, -42.83082129164424], [172.3143641808457, -43.06578396020587], [172.67116243356986, -43.06578396020587], [172.84956155993197, -42.83082129164424]]]}}, {"type": "Feature", "properties": {"name": "hex_014_012", "gust_2023": 68.5, "category_2023": "Cat 1", "triggered_2023": false, "payout_2023": 0.0}, "geometry": {"type": "Polygon", "coordinates": [[[172.84956155993197, -42.36089595452099], [172.67116243356986, -42.12593328595936], [172.3143641808457, -42.12593328595936], [172.1359650544836, -42.36089595452099], [172.3143641808457, -42.59585862308262], [172.67116243356986, -42.59585862308262], [172.84956155993197, -42.36089595452099]]]}}, {"type": "Feature", "properties": {"name": "hex_014_013", "gust_2023": 72.7, "category_2023": "Cat 1", "triggered_2023": false, "payout_2023": 0.0}, "geometry": {"type": "Polygon", "coordinates": [[[172.84956155993197, -41.89097061739774], [172.67116243356986, -41.65600794883611], [172.3143641808457, -41.65600794883611], [172.1359650544836, -41.89097061739774], [172.3143641808457, -42.12593328595937], [172.67116243356986, -42.12593328595937], [172.84956155993197, -41.89097061739774]]]}}, {"type": "Feature", "properties": {"name": "hex_014_014", "gust_2023": 67.3, "category_2023": "Cat 1", "triggered_2023": false, "payout_2023": 0.0}, "geometry": {"type": "Polygon", "coordinates": [[[172.84956155993197, -41.42104528027449], [172.67116243356986, -41.18608261171286], [172.3143641808457, -41.18608261171286], [172.1359650544836, -41.42104528027449], [172.3143641808457, -41.65600794883612], [172.67116243356986, -41.65600794883612], [172.84956155993197, -41.42104528027449]]]}}, {"type": "Feature", "properties": {"name": "hex_014_015", "gust_2023": 70.7, "category_2023": "Cat 1", "triggered_2023": false, "payout_2023": 0.0}, "geometry": {"type": "Polygon", "coordinates": [[[172.84956155993197, -40.95111994315124], [172.67116243356986, -40.71615727458961], [172.3143641808457, -40.71615727458961], [172.1359650544836, -40.95111994315124], [172.3143641808457, -41.18608261171287], [172.67116243356986, -41.18608261171287], [172.84956155993197, -40.95111994315124]]]}}, {"type": "Feature", "properties": {"name": "hex_015_011", "gust_2023": 60.9, "category_2023": "below Cat 1", "triggered_2023": false, "payout_2023": 0.0}, "geometry": {"type": "Polygon", "coordinates": [[[173.38475893901824, -42.59585862308261], [173.20635981265613, -42.360895954520984], [172.84956155993197, -42.360895954520984], [172.67116243356986, -42.59585862308261], [172.84956155993197, -42.83082129164424], [173.20635981265613, -42.83082129164424], [173.38475893901824, -42.59585862308261]]]}}, {"type": "Feature", "properties": {"name": "hex_015_012", "gust_2023": 75.1, "category_2023": "Cat 1", "triggered_2023": false, "payout_2023": 0.0}, "geometry": {"type": "Polygon", "coordinates": [[[173.38475893901824, -42.12593328595936], [173.20635981265613, -41.890970617397734], [172.84956155993197, -41.890970617397734], [172.67116243356986, -42.12593328595936], [172.84956155993197, -42.36089595452099], [173.20635981265613, -42.36089595452099], [173.38475893901824, -42.12593328595936]]]}}, {"type": "Feature", "properties": {"name": "hex_015_013", "gust_2023": 63.8, "category_2023": "Cat 1", "triggered_2023": false, "payout_2023": 0.0}, "geometry": {"type": "Polygon", "coordinates": [[[173.38475893901824, -41.65600794883611], [173.20635981265613, -41.421045280274484], [172.84956155993197, -41.421045280274484], [172.67116243356986, -41.65600794883611], [172.84956155993197, -41.89097061739774], [173.20635981265613, -41.89097061739774], [173.38475893901824, -41.65600794883611]]]}}, {"type": "Feature", "properties": {"name": "hex_015_014", "gust_2023": 69.0, "category_2023": "Cat 1", "triggered_2023": false, "payout_2023": 0.0}, "geometry": {"type": "Polygon", "coordinates": [[[173.38475893901824, -41.18608261171286], [173.20635981265613, -40.951119943151234], [172.84956155993197, -40.951119943151234], [172.67116243356986, -41.18608261171286], [172.84956155993197, -41.42104528027449], [173.20635981265613, -41.42104528027449], [173.38475893901824, -41.18608261171286]]]}}, {"type": "Feature", "properties": {"name": "hex_016_012", "gust_2023": 77.6, "category_2023": "Cat 1", "triggered_2023": false, "payout_2023": 0.0}, "geometry": {"type": "Polygon", "coordinates": [[[173.9199563181045, -42.36089595452099], [173.7415571917424, -42.12593328595936], [173.38475893901824, -42.12593328595936], [173.20635981265613, -42.36089595452099], [173.38475893901824, -42.59585862308262], [173.7415571917424, -42.59585862308262], [173.9199563181045, -42.36089595452099]]]}}, {"type": "Feature", "properties": {"name": "hex_016_013", "gust_2023": 74.3, "category_2023": "Cat 1", "triggered_2023": false, "payout_2023": 0.0}, "geometry": {"type": "Polygon", "coordinates": [[[173.9199563181045, -41.89097061739774], [173.7415571917424, -41.65600794883611], [173.38475893901824, -41.65600794883611], [173.20635981265613, -41.89097061739774], [173.38475893901824, -42.12593328595937], [173.7415571917424, -42.12593328595937], [173.9199563181045, -41.89097061739774]]]}}, {"type": "Feature", "properties": {"name": "hex_016_014", "gust_2023": 82.1, "category_2023": "Cat 1", "triggered_2023": false, "payout_2023": 0.0}, "geometry": {"type": "Polygon", "coordinates": [[[173.9199563181045, -41.42104528027449], [173.7415571917424, -41.18608261171286], [173.38475893901824, -41.18608261171286], [173.20635981265613, -41.42104528027449], [173.38475893901824, -41.65600794883612], [173.7415571917424, -41.65600794883612], [173.9199563181045, -41.42104528027449]]]}}, {"type": "Feature", "properties": {"name": "hex_017_013", "gust_2023": 86.3, "category_2023": "Cat 1", "triggered_2023": false, "payout_2023": 0.0}, "geometry": {"type": "Polygon", "coordinates": [[[174.45515369719078, -41.65600794883611], [174.27675457082867, -41.421045280274484], [173.9199563181045, -41.421045280274484], [173.7415571917424, -41.65600794883611], [173.9199563181045, -41.89097061739774], [174.27675457082867, -41.89097061739774], [174.45515369719078, -41.65600794883611]]]}}, {"type": "Feature", "properties": {"name": "hex_017_014", "gust_2023": 101.6, "category_2023": "Cat 2", "triggered_2023": false, "payout_2023": 0.0}, "geometry": {"type": "Polygon", "coordinates": [[[174.45515369719078, -41.18608261171286], [174.27675457082867, -40.951119943151234], [173.9199563181045, -40.951119943151234], [173.7415571917424, -41.18608261171286], [173.9199563181045, -41.42104528027449], [174.27675457082867, -41.42104528027449], [174.45515369719078, -41.18608261171286]]]}}, {"type": "Feature", "properties": {"name": "hex_017_018", "gust_2023": 130.9, "category_2023": "Cat 3", "triggered_2023": true, "payout_2023": 1.0}, "geometry": {"type": "Polygon", "coordinates": [[[174.45515369719078, -39.30638126321986], [174.27675457082867, -39.07141859465823], [173.9199563181045, -39.07141859465823], [173.7415571917424, -39.30638126321986], [173.9199563181045, -39.54134393178149], [174.27675457082867, -39.54134393178149], [174.45515369719078, -39.30638126321986]]]}}, {"type": "Feature", "properties": {"name": "hex_017_025", "gust_2023": 116.3, "category_2023": "Cat 2", "triggered_2023": true, "payout_2023": 0.4}, "geometry": {"type": "Polygon", "coordinates": [[[174.45515369719078, -36.016903903357104], [174.27675457082867, -35.781941234795475], [173.9199563181045, -35.781941234795475], [173.7415571917424, -36.016903903357104], [173.9199563181045, -36.25186657191873], [174.27675457082867, -36.25186657191873], [174.45515369719078, -36.016903903357104]]]}}, {"type": "Feature", "properties": {"name": "hex_017_026", "gust_2023": 114.4, "category_2023": "Cat 2", "triggered_2023": true, "payout_2023": 0.4}, "geometry": {"type": "Polygon", "coordinates": [[[174.45515369719078, -35.546978566233854], [174.27675457082867, -35.312015897672225], [173.9199563181045, -35.312015897672225], [173.7415571917424, -35.546978566233854], [173.9199563181045, -35.78194123479548], [174.27675457082867, -35.78194123479548], [174.45515369719078, -35.546978566233854]]]}}, {"type": "Feature", "properties": {"name": "hex_018_018", "gust_2023": 108.8, "category_2023": "Cat 2", "triggered_2023": false, "payout_2023": 0.0}, "geometry": {"type": "Polygon", "coordinates": [[[174.99035107627705, -39.54134393178148], [174.81195194991494, -39.306381263219855], [174.45515369719078, -39.306381263219855], [174.27675457082867, -39.54134393178148], [174.45515369719078, -39.77630660034311], [174.81195194991494, -39.77630660034311], [174.99035107627705, -39.54134393178148]]]}}, {"type": "Feature", "properties": {"name": "hex_018_019", "gust_2023": 114.3, "category_2023": "Cat 2", "triggered_2023": true, "payout_2023": 0.4}, "geometry": {"type": "Polygon", "coordinates": [[[174.99035107627705, -39.07141859465824], [174.81195194991494, -38.83645592609661], [174.45515369719078, -38.83645592609661], [174.27675457082867, -39.07141859465824], [174.45515369719078, -39.30638126321987], [174.81195194991494, -39.30638126321987], [174.99035107627705, -39.07141859465824]]]}}, {"type": "Feature", "properties": {"name": "hex_018_020", "gust_2023": 115.2, "category_2023": "Cat 2", "triggered_2023": true, "payout_2023": 0.4}, "geometry": {"type": "Polygon", "coordinates": [[[174.99035107627705, -38.60149325753498], [174.81195194991494, -38.366530588973355], [174.45515369719078, -38.366530588973355], [174.27675457082867, -38.60149325753498], [174.45515369719078, -38.83645592609661], [174.81195194991494, -38.83645592609661], [174.99035107627705, -38.60149325753498]]]}}, {"type": "Feature", "properties": {"name": "hex_018_023", "gust_2023": 112.7, "category_2023": "Cat 2", "triggered_2023": true, "payout_2023": 0.4}, "geometry": {"type": "Polygon", "coordinates": [[[174.99035107627705, -37.19171724616523], [174.81195194991494, -36.956754577603604], [174.45515369719078, -36.956754577603604], [174.27675457082867, -37.19171724616523], [174.45515369719078, -37.42667991472686], [174.81195194991494, -37.42667991472686], [174.99035107627705, -37.19171724616523]]]}}, {"type": "Feature", "properties": {"name": "hex_018_024", "gust_2023": 117.5, "category_2023": "Cat 2", "triggered_2023": true, "payout_2023": 0.4}, "geometry": {"type": "Polygon", "coordinates": [[[174.99035107627705, -36.72179190904198], [174.81195194991494, -36.486829240480354], [174.45515369719078, -36.486829240480354], [174.27675457082867, -36.72179190904198], [174.45515369719078, -36.95675457760361], [174.81195194991494, -36.95675457760361], [174.99035107627705, -36.72179190904198]]]}}, {"type": "Feature", "properties": {"name": "hex_018_025", "gust_2023": 112.3, "category_2023": "Cat 2", "triggered_2023": true, "payout_2023": 0.4}, "geometry": {"type": "Polygon", "coordinates": [[[174.99035107627705, -36.25186657191873], [174.81195194991494, -36.016903903357104], [174.45515369719078, -36.016903903357104], [174.27675457082867, -36.25186657191873], [174.45515369719078, -36.48682924048036], [174.81195194991494, -36.48682924048036], [174.99035107627705, -36.25186657191873]]]}}, {"type": "Feature", "properties": {"name": "hex_019_014", "gust_2023": 86.1, "category_2023": "Cat 1", "triggered_2023": false, "payout_2023": 0.0}, "geometry": {"type": "Polygon", "coordinates": [[[175.52554845536335, -41.18608261171286], [175.34714932900124, -40.951119943151234], [174.99035107627708, -40.951119943151234], [174.81195194991497, -41.18608261171286], [174.99035107627708, -41.42104528027449], [175.34714932900124, -41.42104528027449], [175.52554845536335, -41.18608261171286]]]}}, {"type": "Feature", "properties": {"name": "hex_019_015", "gust_2023": 85.9, "category_2023": "Cat 1", "triggered_2023": false, "payout_2023": 0.0}, "geometry": {"type": "Polygon", "coordinates": [[[175.52554845536335, -40.71615727458961], [175.34714932900124, -40.481194606027984], [174.99035107627708, -40.481194606027984], [174.81195194991497, -40.71615727458961], [174.99035107627708, -40.95111994315124], [175.34714932900124, -40.95111994315124], [175.52554845536335, -40.71615727458961]]]}}, {"type": "Feature", "properties": {"name": "hex_019_017", "gust_2023": 108.8, "category_2023": "Cat 2", "triggered_2023": false, "payout_2023": 0.0}, "geometry": {"type": "Polygon", "coordinates": [[[175.52554845536335, -39.77630660034311], [175.34714932900124, -39.54134393178148], [174.99035107627708, -39.54134393178148], [174.81195194991497, -39.77630660034311], [174.99035107627708, -40.01126926890474], [175.34714932900124, -40.01126926890474], [175.52554845536335, -39.77630660034311]]]}}, {"type": "Feature", "properties": {"name": "hex_019_018", "gust_2023": 121.9, "category_2023": "Cat 3", "triggered_2023": true, "payout_2023": 0.4}, "geometry": {"type": "Polygon", "coordinates": [[[175.52554845536335, -39.30638126321986], [175.34714932900124, -39.07141859465823], [174.99035107627708, -39.07141859465823], [174.81195194991497, -39.30638126321986], [174.99035107627708, -39.54134393178149], [175.34714932900124, -39.54134393178149], [175.52554845536335, -39.30638126321986]]]}}, {"type": "Feature", "properties": {"name": "hex_019_019", "gust_2023": 112.1, "category_2023": "Cat 2", "triggered_2023": true, "payout_2023": 0.4}, "geometry": {"type": "Polygon", "coordinates": [[[175.52554845536335, -38.836455926096605], [175.34714932900124, -38.601493257534976], [174.99035107627708, -38.601493257534976], [174.81195194991497, -38.836455926096605], [174.99035107627708, -39.07141859465823], [175.34714932900124, -39.07141859465823], [175.52554845536335, -38.836455926096605]]]}}, {"type": "Feature", "properties": {"name": "hex_019_020", "gust_2023": 117.1, "category_2023": "Cat 2", "triggered_2023": true, "payout_2023": 0.4}, "geometry": {"type": "Polygon", "coordinates": [[[175.52554845536335, -38.36653058897336], [175.34714932900124, -38.13156792041173], [174.99035107627708, -38.13156792041173], [174.81195194991497, -38.36653058897336], [174.99035107627708, -38.60149325753499], [175.34714932900124, -38.60149325753499], [175.52554845536335, -38.36653058897336]]]}}, {"type": "Feature", "properties": {"name": "hex_019_021", "gust_2023": 120.5, "category_2023": "Cat 3", "triggered_2023": true, "payout_2023": 0.4}, "geometry": {"type": "Polygon", "coordinates": [[[175.52554845536335, -37.896605251850104], [175.34714932900124, -37.661642583288476], [174.99035107627708, -37.661642583288476], [174.81195194991497, -37.896605251850104], [174.99035107627708, -38.13156792041173], [175.34714932900124, -38.13156792041173], [175.52554845536335, -37.896605251850104]]]}}, {"type": "Feature", "properties": {"name": "hex_019_022", "gust_2023": 105.8, "category_2023": "Cat 2", "triggered_2023": false, "payout_2023": 0.0}, "geometry": {"type": "Polygon", "coordinates": [[[175.52554845536335, -37.426679914726854], [175.34714932900124, -37.191717246165226], [174.99035107627708, -37.191717246165226], [174.81195194991497, -37.426679914726854], [174.99035107627708, -37.66164258328848], [175.34714932900124, -37.66164258328848], [175.52554845536335, -37.426679914726854]]]}}, {"type": "Feature", "properties": {"name": "hex_019_023", "gust_2023": 104.2, "category_2023": "Cat 2", "triggered_2023": false, "payout_2023": 0.0}, "geometry": {"type": "Polygon", "coordinates": [[[175.52554845536335, -36.956754577603604], [175.34714932900124, -36.721791909041976], [174.99035107627708, -36.721791909041976], [174.81195194991497, -36.956754577603604], [174.99035107627708, -37.19171724616523], [175.34714932900124, -37.19171724616523], [175.52554845536335, -36.956754577603604]]]}}, {"type": "Feature", "properties": {"name": "hex_020_015", "gust_2023": 85.4, "category_2023": "Cat 1", "triggered_2023": false, "payout_2023": 0.0}, "geometry": {"type": "Polygon", "coordinates": [[[176.06074583444962, -40.95111994315124], [175.8823467080875, -40.71615727458961], [175.52554845536335, -40.71615727458961], [175.34714932900124, -40.95111994315124], [175.52554845536335, -41.18608261171287], [175.8823467080875, -41.18608261171287], [176.06074583444962, -40.95111994315124]]]}}, {"type": "Feature", "properties": {"name": "hex_020_016", "gust_2023": 98.8, "category_2023": "Cat 2", "triggered_2023": false, "payout_2023": 0.0}, "geometry": {"type": "Polygon", "coordinates": [[[176.06074583444962, -40.48119460602799], [175.8823467080875, -40.24623193746636], [175.52554845536335, -40.24623193746636], [175.34714932900124, -40.48119460602799], [175.52554845536335, -40.71615727458962], [175.8823467080875, -40.71615727458962], [176.06074583444962, -40.48119460602799]]]}}, {"type": "Feature", "properties": {"name": "hex_020_017", "gust_2023": 114.6, "category_2023": "Cat 2", "triggered_2023": true, "payout_2023": 0.4}, "geometry": {"type": "Polygon", "coordinates": [[[176.06074583444962, -40.01126926890474], [175.8823467080875, -39.77630660034311], [175.52554845536335, -39.77630660034311], [175.34714932900124, -40.01126926890474], [175.52554845536335, -40.24623193746637], [175.8823467080875, -40.24623193746637], [176.06074583444962, -40.01126926890474]]]}}, {"type": "Feature", "properties": {"name": "hex_020_018", "gust_2023": 116.1, "category_2023": "Cat 2", "triggered_2023": true, "payout_2023": 0.4}, "geometry": {"type": "Polygon", "coordinates": [[[176.06074583444962, -39.54134393178148], [175.8823467080875, -39.306381263219855], [175.52554845536335, -39.306381263219855], [175.34714932900124, -39.54134393178148], [175.52554845536335, -39.77630660034311], [175.8823467080875, -39.77630660034311], [176.06074583444962, -39.54134393178148]]]}}, {"type": "Feature", "properties": {"name": "hex_020_019", "gust_2023": 121.9, "category_2023": "Cat 3", "triggered_2023": true, "payout_2023": 0.4}, "geometry": {"type": "Polygon", "coordinates": [[[176.06074583444962, -39.07141859465824], [175.8823467080875, -38.83645592609661], [175.52554845536335, -38.83645592609661], [175.34714932900124, -39.07141859465824], [175.52554845536335, -39.30638126321987], [175.8823467080875, -39.30638126321987], [176.06074583444962, -39.07141859465824]]]}}, {"type": "Feature", "properties": {"name": "hex_020_020", "gust_2023": 117.0, "category_2023": "Cat 2", "triggered_2023": true, "payout_2023": 0.4}, "geometry": {"type": "Polygon", "coordinates": [[[176.06074583444962, -38.60149325753498], [175.8823467080875, -38.366530588973355], [175.52554845536335, -38.366530588973355], [175.34714932900124, -38.60149325753498], [175.52554845536335, -38.83645592609661], [175.8823467080875, -38.83645592609661], [176.06074583444962, -38.60149325753498]]]}}, {"type": "Feature", "properties": {"name": "hex_020_021", "gust_2023": 115.7, "category_2023": "Cat 2", "triggered_2023": true, "payout_2023": 0.4}, "geometry": {"type": "Polygon", "coordinates": [[[176.06074583444962, -38.13156792041173], [175.8823467080875, -37.896605251850104], [175.52554845536335, -37.896605251850104], [175.34714932900124, -38.13156792041173], [175.52554845536335, -38.36653058897336], [175.8823467080875, -38.36653058897336], [176.06074583444962, -38.13156792041173]]]}}, {"type": "Feature", "properties": {"name": "hex_020_022", "gust_2023": 108.1, "category_2023": "Cat 2", "triggered_2023": false, "payout_2023": 0.0}, "geometry": {"type": "Polygon", "coordinates": [[[176.06074583444962, -37.66164258328848], [175.8823467080875, -37.426679914726854], [175.52554845536335, -37.426679914726854], [175.34714932900124, -37.66164258328848], [175.52554845536335, -37.89660525185011], [175.8823467080875, -37.89660525185011], [176.06074583444962, -37.66164258328848]]]}}, {"type": "Feature", "properties": {"name": "hex_020_023", "gust_2023": 114.0, "category_2023": "Cat 2", "triggered_2023": true, "payout_2023": 0.4}, "geometry": {"type": "Polygon", "coordinates": [[[176.06074583444962, -37.19171724616523], [175.8823467080875, -36.956754577603604], [175.52554845536335, -36.956754577603604], [175.34714932900124, -37.19171724616523], [175.52554845536335, -37.42667991472686], [175.8823467080875, -37.42667991472686], [176.06074583444962, -37.19171724616523]]]}}, {"type": "Feature", "properties": {"name": "hex_021_015", "gust_2023": 101.3, "category_2023": "Cat 2", "triggered_2023": false, "payout_2023": 0.0}, "geometry": {"type": "Polygon", "coordinates": [[[176.5959432135359, -40.71615727458961], [176.41754408717378, -40.481194606027984], [176.06074583444962, -40.481194606027984], [175.8823467080875, -40.71615727458961], [176.06074583444962, -40.95111994315124], [176.41754408717378, -40.95111994315124], [176.5959432135359, -40.71615727458961]]]}}, {"type": "Feature", "properties": {"name": "hex_021_016", "gust_2023": 114.6, "category_2023": "Cat 2", "triggered_2023": true, "payout_2023": 0.4}, "geometry": {"type": "Polygon", "coordinates": [[[176.5959432135359, -40.24623193746636], [176.41754408717378, -40.011269268904734], [176.06074583444962, -40.011269268904734], [175.8823467080875, -40.24623193746636], [176.06074583444962, -40.48119460602799], [176.41754408717378, -40.48119460602799], [176.5959432135359, -40.24623193746636]]]}}, {"type": "Feature", "properties": {"name": "hex_021_017", "gust_2023": 114.6, "category_2023": "Cat 2", "triggered_2023": true, "payout_2023": 0.4}, "geometry": {"type": "Polygon", "coordinates": [[[176.5959432135359, -39.77630660034311], [176.41754408717378, -39.54134393178148], [176.06074583444962, -39.54134393178148], [175.8823467080875, -39.77630660034311], [176.06074583444962, -40.01126926890474], [176.41754408717378, -40.01126926890474], [176.5959432135359, -39.77630660034311]]]}}, {"type": "Feature", "properties": {"name": "hex_021_018", "gust_2023": 113.3, "category_2023": "Cat 2", "triggered_2023": true, "payout_2023": 0.4}, "geometry": {"type": "Polygon", "coordinates": [[[176.5959432135359, -39.30638126321986], [176.41754408717378, -39.07141859465823], [176.06074583444962, -39.07141859465823], [175.8823467080875, -39.30638126321986], [176.06074583444962, -39.54134393178149], [176.41754408717378, -39.54134393178149], [176.5959432135359, -39.30638126321986]]]}}, {"type": "Feature", "properties": {"name": "hex_021_019", "gust_2023": 117.7, "category_2023": "Cat 2", "triggered_2023": true, "payout_2023": 0.4}, "geometry": {"type": "Polygon", "coordinates": [[[176.5959432135359, -38.836455926096605], [176.41754408717378, -38.601493257534976], [176.06074583444962, -38.601493257534976], [175.8823467080875, -38.836455926096605], [176.06074583444962, -39.07141859465823], [176.41754408717378, -39.07141859465823], [176.5959432135359, -38.836455926096605]]]}}, {"type": "Feature", "properties": {"name": "hex_021_020", "gust_2023": 114.3, "category_2023": "Cat 2", "triggered_2023": true, "payout_2023": 0.4}, "geometry": {"type": "Polygon", "coordinates": [[[176.5959432135359, -38.36653058897336], [176.41754408717378, -38.13156792041173], [176.06074583444962, -38.13156792041173], [175.8823467080875, -38.36653058897336], [176.06074583444962, -38.60149325753499], [176.41754408717378, -38.60149325753499], [176.5959432135359, -38.36653058897336]]]}}, {"type": "Feature", "properties": {"name": "hex_021_021", "gust_2023": 108.1, "category_2023": "Cat 2", "triggered_2023": false, "payout_2023": 0.0}, "geometry": {"type": "Polygon", "coordinates": [[[176.5959432135359, -37.896605251850104], [176.41754408717378, -37.661642583288476], [176.06074583444962, -37.661642583288476], [175.8823467080875, -37.896605251850104], [176.06074583444962, -38.13156792041173], [176.41754408717378, -38.13156792041173], [176.5959432135359, -37.896605251850104]]]}}, {"type": "Feature", "properties": {"name": "hex_022_017", "gust_2023": 108.2, "category_2023": "Cat 2", "triggered_2023": false, "payout_2023": 0.0}, "geometry": {"type": "Polygon", "coordinates": [[[177.13114059262216, -40.01126926890474], [176.95274146626005, -39.77630660034311], [176.5959432135359, -39.77630660034311], [176.41754408717378, -40.01126926890474], [176.5959432135359, -40.24623193746637], [176.95274146626005, -40.24623193746637], [177.13114059262216, -40.01126926890474]]]}}, {"type": "Feature", "properties": {"name": "hex_022_018", "gust_2023": 108.2, "category_2023": "Cat 2", "triggered_2023": false, "payout_2023": 0.0}, "geometry": {"type": "Polygon", "coordinates": [[[177.13114059262216, -39.54134393178148], [176.95274146626005, -39.306381263219855], [176.5959432135359, -39.306381263219855], [176.41754408717378, -39.54134393178148], [176.5959432135359, -39.77630660034311], [176.95274146626005, -39.77630660034311], [177.13114059262216, -39.54134393178148]]]}}, {"type": "Feature", "properties": {"name": "hex_022_019", "gust_2023": 106.7, "category_2023": "Cat 2", "triggered_2023": false, "payout_2023": 0.0}, "geometry": {"type": "Polygon", "coordinates": [[[177.13114059262216, -39.07141859465824], [176.95274146626005, -38.83645592609661], [176.5959432135359, -38.83645592609661], [176.41754408717378, -39.07141859465824], [176.5959432135359, -39.30638126321987], [176.95274146626005, -39.30638126321987], [177.13114059262216, -39.07141859465824]]]}}, {"type": "Feature", "properties": {"name": "hex_022_020", "gust_2023": 108.3, "category_2023": "Cat 2", "triggered_2023": false, "payout_2023": 0.0}, "geometry": {"type": "Polygon", "coordinates": [[[177.13114059262216, -38.60149325753498], [176.95274146626005, -38.366530588973355], [176.5959432135359, -38.366530588973355], [176.41754408717378, -38.60149325753498], [176.5959432135359, -38.83645592609661], [176.95274146626005, -38.83645592609661], [177.13114059262216, -38.60149325753498]]]}}, {"type": "Feature", "properties": {"name": "hex_022_021", "gust_2023": 99.6, "category_2023": "Cat 2", "triggered_2023": false, "payout_2023": 0.0}, "geometry": {"type": "Polygon", "coordinates": [[[177.13114059262216, -38.13156792041173], [176.95274146626005, -37.896605251850104], [176.5959432135359, -37.896605251850104], [176.41754408717378, -38.13156792041173], [176.5959432135359, -38.36653058897336], [176.95274146626005, -38.36653058897336], [177.13114059262216, -38.13156792041173]]]}}, {"type": "Feature", "properties": {"name": "hex_023_019", "gust_2023": 103.7, "category_2023": "Cat 2", "triggered_2023": false, "payout_2023": 0.0}, "geometry": {"type": "Polygon", "coordinates": [[[177.66633797170843, -38.836455926096605], [177.48793884534632, -38.601493257534976], [177.13114059262216, -38.601493257534976], [176.95274146626005, -38.836455926096605], [177.13114059262216, -39.07141859465823], [177.48793884534632, -39.07141859465823], [177.66633797170843, -38.836455926096605]]]}}, {"type": "Feature", "properties": {"name": "hex_023_020", "gust_2023": 104.6, "category_2023": "Cat 2", "triggered_2023": false, "payout_2023": 0.0}, "geometry": {"type": "Polygon", "coordinates": [[[177.66633797170843, -38.36653058897336], [177.48793884534632, -38.13156792041173], [177.13114059262216, -38.13156792041173], [176.95274146626005, -38.36653058897336], [177.13114059262216, -38.60149325753499], [177.48793884534632, -38.60149325753499], [177.66633797170843, -38.36653058897336]]]}}, {"type": "Feature", "properties": {"name": "hex_024_020", "gust_2023": 104.7, "category_2023": "Cat 2", "triggered_2023": false, "payout_2023": 0.0}, "geometry": {"type": "Polygon", "coordinates": [[[178.2015353507947, -38.60149325753498], [178.0231362244326, -38.366530588973355], [177.66633797170843, -38.366530588973355], [177.48793884534632, -38.60149325753498], [177.66633797170843, -38.83645592609661], [178.0231362244326, -38.83645592609661], [178.2015353507947, -38.60149325753498]]]}}, {"type": "Feature", "properties": {"name": "hex_024_021", "gust_2023": 101.2, "category_2023": "Cat 2", "triggered_2023": false, "payout_2023": 0.0}, "geometry": {"type": "Polygon", "coordinates": [[[178.2015353507947, -38.13156792041173], [178.0231362244326, -37.896605251850104], [177.66633797170843, -37.896605251850104], [177.48793884534632, -38.13156792041173], [177.66633797170843, -38.36653058897336], [178.0231362244326, -38.36653058897336], [178.2015353507947, -38.13156792041173]]]}}, {"type": "Feature", "properties": {"name": "hex_024_022", "gust_2023": 115.1, "category_2023": "Cat 2", "triggered_2023": true, "payout_2023": 0.4}, "geometry": {"type": "Polygon", "coordinates": [[[178.2015353507947, -37.66164258328848], [178.0231362244326, -37.426679914726854], [177.66633797170843, -37.426679914726854], [177.48793884534632, -37.66164258328848], [177.66633797170843, -37.89660525185011], [178.0231362244326, -37.89660525185011], [178.2015353507947, -37.66164258328848]]]}}, {"type": "Feature", "properties": {"name": "hex_025_021", "gust_2023": 96.1, "category_2023": "Cat 2", "triggered_2023": false, "payout_2023": 0.0}, "geometry": {"type": "Polygon", "coordinates": [[[178.73673272988097, -37.896605251850104], [178.55833360351886, -37.661642583288476], [178.2015353507947, -37.661642583288476], [178.0231362244326, -37.896605251850104], [178.2015353507947, -38.13156792041173], [178.55833360351886, -38.13156792041173], [178.73673272988097, -37.896605251850104]]]}}]}