{"type": "FeatureCollection", "note": "Measured airport gusts against the modelled gust in the same ERA5 cell. The difference conflates model error with exposure difference and is NOT an ERA5 bias. Aerodromes are sheltered by design: these are a floor on the regional peak.", "features": [{"type": "Feature", "properties": {"code": "NZAA", "name": "Auckland", "modelled_kmh": 102.5, "n_obs": 432, "n_censored": 384, "measured_kmh_lower": 88.9, "measured_kmh_upper": 88.9, "model_to_station_gap_kmh": 13.6}, "geometry": {"type": "Point", "coordinates": [174.792, -37.008]}}, {"type": "Feature", "properties": {"code": "NZCH", "name": "Christchurch", "modelled_kmh": 56.5, "n_obs": 432, "n_censored": 429, "measured_kmh_lower": 53.7, "measured_kmh_upper": 64.8, "model_to_station_gap_kmh": 2.8}, "geometry": {"type": "Point", "coordinates": [172.528, -43.489]}}, {"type": "Feature", "properties": {"code": "NZWN", "name": "Wellington", "modelled_kmh": 91.5, "n_obs": 432, "n_censored": 397, "measured_kmh_lower": 77.8, "measured_kmh_upper": 79.6, "model_to_station_gap_kmh": 13.7}, "geometry": {"type": "Point", "coordinates": [174.806, -41.331]}}]}