{"type": "FeatureCollection", "note": "Storm tracks are map context. The payout index is ERA5 gusts, not these tracks \u2014 the fields a parametric windfield needs are not published here.", "features": [{"type": "Feature", "properties": {"sid": "2023005S18142", "name": "Hale", "start": "2023-01-09", "end": "2023-01-11", "n_points": 17, "peak_wind_kmh": null, "natures": ["NR"], "closest_land_km": 2, "intensity_reported": false}, "geometry": {"type": "LineString", "coordinates": [[179.5, -30.7], [179.6, -32.3], [178.9, -33.5], [178.3, -34.3], [177.6, -34.9], [176.8, -35.5], [176.1, -35.9], [175.8, -36.2], [175.7, -36.5], [175.4, -37.0], [175.1, -37.5], [175.0, -37.8], [175.0, -38.0], [174.8, -38.5], [175.2, -38.9], [176.5, -39.2], [178.5, -39.3]]}}, {"type": "Feature", "properties": {"sid": "2023036S12163", "name": "Gabrielle", "start": "2023-02-11", "end": "2023-02-14", "n_points": 24, "peak_wind_kmh": null, "natures": ["NR", "SS"], "closest_land_km": 29, "intensity_reported": false}, "geometry": {"type": "LineString", "coordinates": [[170.8, -30.2], [171.7, -30.8], [172.5, -31.4], [173.2, -31.9], [173.6, -32.2], [174.0, -32.5], [174.5, -32.9], [175.1, -33.3], [175.6, -33.7], [176.0, -34.2], [176.1, -34.9], [176.1, -35.5], [176.0, -35.9], [175.9, -36.2], [176.1, -36.2], [176.5, -36.2], [177.2, -36.4], [178.0, -36.7], [178.7, -37.1], [179.4, -37.4], [179.9, -37.6], [180.4, -37.8], [181.0, -38.0], [181.9, -38.3]]}}]}