{"type": "FeatureCollection", "features": [{"type": "Feature", "properties": {"name": "L'Ermitage / La Saline (Saint-Gilles)", "dhw_2009": 6.9, "score_2009": 8.4, "spatial_std_2009": 0.096, "triggered_2009": true, "payout_2009": 0.6, "dhw_2010": 0.16, "score_2010": 1.2, "spatial_std_2010": 0.058, "triggered_2010": false, "payout_2010": 0.0, "dhw_2011": 3.24, "score_2011": 4.7, "spatial_std_2011": 0.256, "triggered_2011": true, "payout_2011": 0.25, "dhw_2012": 0.65, "score_2012": 1.8, "spatial_std_2012": 0.01, "triggered_2012": false, "payout_2012": 0.0, "dhw_2013": 0.47, "score_2013": 1.6, "spatial_std_2013": 0.149, "triggered_2013": false, "payout_2013": 0.0, "dhw_2014": 3.76, "score_2014": 5.2, "spatial_std_2014": 0.226, "triggered_2014": true, "payout_2014": 0.25, "dhw_2015": 1.91, "score_2015": 3.2, "spatial_std_2015": 0.114, "triggered_2015": false, "payout_2015": 0.0, "dhw_2016": 7.99, "score_2016": 9.5, "spatial_std_2016": 0.369, "triggered_2016": true, "payout_2016": 0.6, "dhw_2017": 6.81, "score_2017": 8.3, "spatial_std_2017": 0.455, "triggered_2017": true, "payout_2017": 0.6, "dhw_2018": 4.09, "score_2018": 5.6, "spatial_std_2018": 0.245, "triggered_2018": true, "payout_2018": 0.25, "dhw_2019": 13.99, "score_2019": 10.0, "spatial_std_2019": 0.263, "triggered_2019": true, "payout_2019": 1.0, "dhw_2020": 1.29, "score_2020": 2.5, "spatial_std_2020": 0.234, "triggered_2020": false, "payout_2020": 0.0, "dhw_2021": 8.86, "score_2021": 10.0, "spatial_std_2021": 0.211, "triggered_2021": true, "payout_2021": 1.0, "dhw_2022": 0.44, "score_2022": 1.5, "spatial_std_2022": 0.163, "triggered_2022": false, "payout_2022": 0.0, "dhw_2023": 0.61, "score_2023": 1.7, "spatial_std_2023": 0.118, "triggered_2023": false, "payout_2023": 0.0, "dhw_2024": 0.75, "score_2024": 1.9, "spatial_std_2024": 0.158, "triggered_2024": false, "payout_2024": 0.0}, "geometry": {"type": "Polygon", "coordinates": [[[55.17, -21.12], [55.24, -21.12], [55.24, -21.02], [55.17, -21.02], [55.17, -21.12]]]}}, {"type": "Feature", "properties": {"name": "Saint-Leu", "dhw_2009": 6.73, "score_2009": 8.2, "spatial_std_2009": 0.122, "triggered_2009": true, "payout_2009": 0.6, "dhw_2010": 0.17, "score_2010": 1.2, "spatial_std_2010": 0.056, "triggered_2010": false, "payout_2010": 0.0, "dhw_2011": 2.64, "score_2011": 4.1, "spatial_std_2011": 0.244, "triggered_2011": true, "payout_2011": 0.25, "dhw_2012": 0.79, "score_2012": 1.9, "spatial_std_2012": 0.098, "triggered_2012": false, "payout_2012": 0.0, "dhw_2013": 0.15, "score_2013": 1.2, "spatial_std_2013": 0.052, "triggered_2013": false, "payout_2013": 0.0, "dhw_2014": 3.3, "score_2014": 4.8, "spatial_std_2014": 0.162, "triggered_2014": true, "payout_2014": 0.25, "dhw_2015": 1.68, "score_2015": 3.0, "spatial_std_2015": 0.206, "triggered_2015": false, "payout_2015": 0.0, "dhw_2016": 8.25, "score_2016": 9.7, "spatial_std_2016": 0.405, "triggered_2016": true, "payout_2016": 0.6, "dhw_2017": 6.67, "score_2017": 8.2, "spatial_std_2017": 0.614, "triggered_2017": true, "payout_2017": 0.6, "dhw_2018": 3.49, "score_2018": 4.9, "spatial_std_2018": 0.07, "triggered_2018": true, "payout_2018": 0.25, "dhw_2019": 13.56, "score_2019": 10.0, "spatial_std_2019": 0.47, "triggered_2019": true, "payout_2019": 1.0, "dhw_2020": 0.76, "score_2020": 1.9, "spatial_std_2020": 0.248, "triggered_2020": false, "payout_2020": 0.0, "dhw_2021": 8.37, "score_2021": 9.9, "spatial_std_2021": 0.418, "triggered_2021": true, "payout_2021": 0.6, "dhw_2022": 0.0, "score_2022": 1.0, "spatial_std_2022": 0.0, "triggered_2022": false, "payout_2022": 0.0, "dhw_2023": 0.3, "score_2023": 1.4, "spatial_std_2023": 0.145, "triggered_2023": false, "payout_2023": 0.0, "dhw_2024": 0.59, "score_2024": 1.7, "spatial_std_2024": 0.143, "triggered_2024": false, "payout_2024": 0.0}, "geometry": {"type": "Polygon", "coordinates": [[[55.16, -21.21], [55.29, -21.21], [55.29, -21.12], [55.16, -21.12], [55.16, -21.21]]]}}]}